STARLINK-33872          
1 64189U 25113V   26068.44848278  .00031019  00000+0  10544-2 0  9996
2 64189  53.1605  91.8609 0001442  59.9173 300.1971 15.30220217 44998
KUIPER-00208            
1 67775U 26030M   26068.67231509  .00043852  00000+0  13883-2 0  9994
2 67775  51.8846 219.6993 0015525  57.3146 302.9333 15.32208734  5080
